37846,GSAT0101 (GALILEO-PFM),2011,844.69,700.0,+,57.12,Active,1,MEO,French Guiana,ESA,Commercial,Navigation (Global or Regional Positioning),Soyuz,1 37846U 11060A   24020.14407011 -.00000089  00000+0  00000+0 0  9998,2 37846  57.1243   5.5648 0003298 333.3981  26.5859  1.70475796 76130,1.70475796,0.0003298,MEO
37847,GSAT0102 (GALILEO-FM2),2011,844.7,700.0,+,57.12,Active,1,MEO,French Guiana,ESA,Commercial,Navigation (Global or Regional Positioning),Soyuz,1 37847U 11060B   24020.30542172 -.00000089  00000+0  00000+0 0  9995,2 37847  57.1249   5.5606 0005061 318.1814 186.8081  1.70475215 76141,1.70475215,0.0005061,MEO
37867,COSMOS 2476 [GLONASS-M],2011,675.73,1415.0,+,64.82,Active,1,MEO,Kazakhstan,Russia/USSR,Commercial/Military,Navigation (Global or Regional Positioning),Proton,1 37867U 11064A   24020.50830914 -.00000050  00000+0  00000+0 0  9995,2 37867  64.8233 102.6404 0023719 236.0517 117.3167  2.13101590 95037,2.1310159,0.0023719,MEO
37868,COSMOS 2477 [GLONASS-M],2011,675.73,1415.0,+,64.83,Active,1,MEO,Kazakhstan,Russia/USSR,Commercial/Military,Navigation (Global or Regional Positioning),Proton,1 37868U 11064B   24020.36484771 -.00000050  00000+0  00000+0 0  9996,2 37868  64.8303 102.7162 0020903 236.8120 184.2971  2.13101372 95032,2.13101372,0.0020903,MEO
37869,COSMOS 2475 [GLONASS-M],2011,675.73,1415.0,+,64.84,Active,1,MEO,Kazakhstan,Russia/USSR,Commercial/Military,Navigation (Global or Regional Positioning),Proton,1 37869U 11064C   24020.43035208 -.00000050  00000+0  00000+0 0  9992,2 37869  64.8376 102.7275 0025508 252.1156 177.8452  2.13101558 95043,2.13101558,0.0025508,MEO
37951,LUCH-5A,2011,1436.08,950.0,+,6.5,Active,1,GSO,Kazakhstan,Russia/USSR,Government,Communications,Proton,1 37951U 11074B   24020.64370472 -.00000051  00000+0  00000+0 0  9994,2 37951   6.5013  87.3979 0003157 201.2183 229.4795  1.00272942 44247,1.00272942,0.0003157,GSO
38091,BEIDOU-2 G5,2012,1436.04,2300.0,+,2.04,Active,1,GSO,PRC,China,Government/Military,Navigation (Global or Regional Positioning),Long March,1 38091U 12008A   24020.47271188  .00000058  00000+0  00000+0 0  9999,2 38091   2.0424  70.3626 0009279 218.2485  59.6698  1.00275884 43551,1.00275884,0.0009279,GSO
38250,BEIDOU-2 M3,2012,773.23,2200.0,+,56.44,Active,1,MEO,PRC,China,Government/Military,Navigation (Global or Regional Positioning),Long March,1 38250U 12018A   24020.19600667 -.00000109  00000+0  00000+0 0  9992,2 38250  56.4339 334.2969 0024319 266.5504  93.1632  1.86231193 79579,1.86231193,0.0024319,MEO
38251,BEIDOU-2 M4,2012,773.23,2200.0,+,56.34,Active,1,MEO,PRC,China,Government/Military,Navigation (Global or Regional Positioning),Long March,1 38251U 12018B   24020.12685830 -.00000109  00000+0  00000+0 0  9991,2 38251  56.3428 333.5821 0015293 271.8965  87.9206  1.86231942 79578,1.86231942,0.0015293,MEO
38652,SES-5,2012,1436.1,6007.0,+,0.02,Active,1,GSO,Kazakhstan,SES,Commercial,Communications,Proton,1 38652U 12036A   24020.30466069  .00000039  00000+0  00000+0 0  9998,2 38652   0.0235 354.3659 0002182 297.0855 302.3595  1.00274581 35676,1.00274581,0.0002182,GEO
38775,BEIDOU-2 M6,2012,773.23,3800.0,+,55.79,Active,1,MEO,PRC,China,Government/Military,Navigation (Global or Regional Positioning),Long March,1 38775U 12050B   24019.83652588 -.00000069  00000+0  00000+0 0  9993,2 38775  55.7945  92.1593 0012401 327.9415  32.0211  1.86231004 76934,1.86231004,0.0012401,MEO
38779,GSAT-10,2012,1436.11,3400.0,+,0.05,Active,1,GSO,French Guiana,India,Government,Communications,Ariane,1 38779U 12051B   24020.54204378 -.00000161  00000+0  00000+0 0  9991,2 38779   0.0901 269.1238 0004896 358.4621 129.9526  1.00272129 41309,1.00272129,0.0004896,GEO
38833,NAVSTAR 67 (USA 239),2012,718.0,1630.0,+,53.51,Active,1,MEO,USA,USA,Commercial/Military,Navigation (Global or Regional Positioning),Delta,1 38833U 12053A   24019.82154969  .00000076  00000+0  00000+0 0  9997,2 38833  53.5147 179.5718 0148872  54.7158 306.6466  2.00556123 81802,2.00556123,0.0148872,MEO
38857,GSAT0103 (GALILEO-FM3),2012,844.71,700.0,+,55.34,Active,1,MEO,French Guiana,ESA,Commercial,Navigation (Global or Regional Positioning),Soyuz,1 38857U 12055A   24019.59665273 -.00000025  00000+0  00000+0 0  9999,2 38857  55.3411 125.7186 0003785 252.2575 107.6824  1.70473383 70150,1.70473383,0.0003785,MEO
38858,GSAT0104 (GALILEO-FM4),2012,844.71,700.0,+,55.34,Active,1,MEO,French Guiana,ESA,Commercial,Navigation (Global or Regional Positioning),Soyuz,1 38858U 12055B   24020.15251134 -.00000030  00000+0  00000+0 0  9997,2 38858  55.3412 125.7049 0001748 224.7009 135.2642  1.70473603 70029,1.70473603,0.0001748,MEO
38953,BEIDOU-2 G6,2012,1436.06,3800.0,+,2.18,Active,1,GSO,PRC,China,Government/Military,Navigation (Global or Regional Positioning),Long March,1 38953U 12059A   24020.47767215 -.00000173  00000+0  00000+0 0  9992,2 38953   2.1808  81.4717 0009313 288.5213   5.2535  1.00274483 41095,1.00274483,0.0009313,GSO
38977,LUCH-5B,2012,1436.11,1282.0,+,8.56,Active,1,GSO,Kazakhstan,Russia/USSR,Government,Communications,Proton,1 38977U 12061A   24020.38603719 -.00000139  00000+0  00000+0 0  9991,2 38977   8.5611  57.9933 0003101 184.9199 358.9776  1.00271140 40802,1.0027114,0.0003101,GSO
39155,COSMOS 2485 [GLONASS-M],2013,675.73,1415.0,+,64.98,Active,1,MEO,Russia,Russia/USSR,Commercial/Military,Navigation (Global or Regional Positioning),Soyuz,1 39155U 13019A   24020.45886596 -.00000050  00000+0  00000+0 0  9990,2 39155  64.9824 103.1951 0024048 232.2114 127.6022  2.13101605 83551,2.13101605,0.0024048,MEO
39166,NAVSTAR 68 (USA 242),2013,717.98,1630.0,+,55.24,Active,1,MEO,USA,USA,Commercial/Military,Navigation (Global or Regional Positioning),Atlas,1 39166U 13023A   24020.18601684 -.00000078  00000+0  00000+0 0  9990,2 39166  55.2409 304.5811 0120742  42.2665 318.6777  2.00563404 78250,2.00563404,0.0120742,MEO
39199,IRNSS-1A,2013,1436.06,1425.0,P,33.73,Active,1,GSO,India,India,Government,Navigation (Global or Regional Positioning),PSLV,1 39199U 13034A   24016.74756194  .00000065  00000+0  00000+0 0  9997,2 39199  33.7321  76.7000 0021456 188.7939 174.2981  1.00274097 38525,1.00274097,0.0021456,GSO
39533,NAVSTAR 69 (USA 248),2014,717.99,1630.0,+,53.6,Active,1,MEO,USA,USA,Commercial/Military,Navigation (Global or Regional Positioning),Delta,1 39533U 14008A   24020.18897527  .00000080  00000+0  00000+0 0  9997,2 39533  53.5994 185.1339 0068464 215.7975 143.7285  2.00559477 72057,2.00559477,0.0068464,MEO
39617,ASTRA 5B,2014,1436.07,5724.0,+,0.09,Active,1,GSO,French Guiana,SES,Commercial,Communications,Ariane,1 39617U 14011B   24020.25080380  .00000141  00000+0  00000+0 0  9991,2 39617   0.0911 295.8340 0004684 356.8992 300.1733  1.00268816 35854,1.00268816,0.0004684,GEO
39620,COSMOS 2492 [GLONASS-M],2014,675.73,-1.0,+,65.73,Active,0,MEO,Russia,Russia/USSR,Unknown,Unknown,Unknown,1 39620U 14012A   24020.41428034 -.00000081  00000+0  00000+0 0  9990,2 39620  65.7278 343.6308 0015147 318.4954  41.3833  2.13103054 76516,2.13103054,0.0015147,MEO
39635,IRNSS-1B,2014,1436.09,1432.0,+,29.28,Active,1,GSO,India,India,Government,Navigation (Global or Regional Positioning),PSLV,1 39635U 14017A   24016.74756194  .00000122  00000+0  00000+0 0  9998,2 39635  29.2824 255.3927 0016955 180.6858   3.8030  1.00272328 35939,1.00272328,0.0016955,GSO
40001,COSMOS 2500 [GLONASS-M],2014,675.72,1415.0,+,65.67,Active,1,MEO,Russia,Russia/USSR,Commercial/Military,Navigation (Global or Regional Positioning),Soyuz,1 40001U 14032A   24020.12645386 -.00000079  00000+0  00000+0 0  9993,2 40001  65.6658 343.4572 0006529 226.3250 133.6156  2.13105961 74726,2.13105961,0.0006529,MEO
40105,NAVSTAR 71 (USA 256),2014,718.01,1630.0,+,54.87,Active,1,MEO,USA,USA,Commercial/Military,Navigation (Global or Regional Positioning),Atlas,1 40105U 14045A   24020.05775356 -.00000038  00000+0  00000+0 0  9990,2 40105  54.8671 123.5686 0026528 117.3761 242.8855  2.00555731 68447,2.00555731,0.0026528,MEO
40128,GSAT0201 (GALILEO 5),2014,776.2,733.0,+,49.81,Active,1,MEO,French Guiana,ESA,Commercial,Navigation (Global or Regional Positioning),Soyuz,1 40128U 14050A   24020.32541632 -.00000106  00000+0  00000+0 0  9995,2 40128  49.8049 309.0423 1605691 145.5445 226.0181  1.85519510 62012,1.8551951,0.1605691,MEO
40129,GSAT0202 (GALILEO 6),2014,776.2,733.0,+,49.82,Active,1,MEO,French Guiana,ESA,Commercial,Navigation (Global or Regional Positioning),Soyuz,1 40129U 14050B   24018.96731006 -.00000104  00000+0  00000+0 0  9997,2 40129  49.8244 308.1710 1603962 146.3013 225.0364  1.85520189 64151,1.85520189,0.1603962,MEO
