OBJECT_NAME,OBJECT_ID,EPOCH,MEAN_MOTION,ECCENTRICITY,INCLINATION,RA_OF_ASC_NODE,ARG_OF_PERICENTER,MEAN_ANOMALY,EPHEMERIS_TYPE,CLASSIFICATION_TYPE,NORAD_CAT_ID,ELEMENT_SET_NO,REV_AT_EPOCH,BSTAR,MEAN_MOTION_DOT,MEAN_MOTION_DDOT
GSAT0101 (GALILEO-PFM),2011-060A,2024-01-20T03:27:27.657504,1.70475796,.0003298,57.1243,5.5648,333.3981,26.5859,0,U,37846,999,7613,0,-.89E-6,0
GSAT0102 (GALILEO-FM2),2011-060B,2024-01-20T07:19:48.436608,1.70475215,.0005061,57.1249,5.5606,318.1814,186.8081,0,U,37847,999,7614,0,-.89E-6,0
COSMOS 2476,2011-064A,2024-01-20T12:11:57.909696,2.13101590,.0023719,64.8233,102.6404,236.0517,117.3167,0,U,37867,999,9503,0,-.5E-6,0
COSMOS 2477,2011-064B,2024-01-20T08:45:22.842144,2.13101372,.0020903,64.8303,102.7162,236.8120,184.2971,0,U,37868,999,9503,0,-.5E-6,0
COSMOS 2475,2011-064C,2024-01-20T10:19:42.419712,2.13101558,.0025508,64.8376,102.7275,252.1156,177.8452,0,U,37869,999,9504,0,-.5E-6,0
LUCH-5A,2011-074B,2024-01-20T15:26:56.087808,1.00272942,.0003157,6.5013,87.3979,201.2183,229.4795,0,U,37951,999,4424,0,-.51E-6,0
BEIDOU-2 G5,2012-008A,2024-01-20T11:20:42.306432,1.00275884,.0009279,2.0424,70.3626,218.2485,59.6698,0,U,38091,999,4355,0,.58E-6,0
BEIDOU-2 M3,2012-018A,2024-01-20T04:42:14.976288,1.86231193,.0024319,56.4339,334.2969,266.5504,93.1632,0,U,38250,999,7957,0,-.109E-5,0
BEIDOU-2 M4,2012-018B,2024-01-20T03:02:40.557120,1.86231942,.0015293,56.3428,333.5821,271.8965,87.9206,0,U,38251,999,7957,0,-.109E-5,0
SES-5,2012-036A,2024-01-20T07:18:42.683616,1.00274581,.0002182,0.0235,354.3659,297.0855,302.3595,0,U,38652,999,3567,0,.39E-6,0
BEIDOU-2 M6,2012-050B,2024-01-19T20:04:35.836032,1.86231004,.0012401,55.7945,92.1593,327.9415,32.0211,0,U,38775,999,7693,0,-.69E-6,0
GSAT-10,2012-051B,2024-01-20T13:00:32.582592,1.00272129,.0004896,0.0901,269.1238,358.4621,129.9526,0,U,38779,999,4130,0,-.161E-5,0
NAVSTAR 67 (USA 239),2012-053A,2024-01-19T19:43:01.893216,2.00556123,.0148872,53.5147,179.5718,54.7158,306.6466,0,U,38833,999,8180,0,.76E-6,0
GSAT0103 (GALILEO-FM3),2012-055A,2024-01-19T14:19:10.795872,1.70473383,.0003785,55.3411,125.7186,252.2575,107.6824,0,U,38857,999,7015,0,-.25E-6,0
GSAT0104 (GALILEO-FM4),2012-055B,2024-01-20T03:39:36.979776,1.70473603,.0001748,55.3412,125.7049,224.7009,135.2642,0,U,38858,999,7002,0,-.3E-6,0
BEIDOU-2 G6,2012-059A,2024-01-20T11:27:50.873760,1.00274483,.0009313,2.1808,81.4717,288.5213,5.2535,0,U,38953,999,4109,0,-.173E-5,0
LUCH-5B,2012-061A,2024-01-20T09:15:53.613216,1.00271140,.0003101,8.5611,57.9933,184.9199,358.9776,0,U,38977,999,4080,0,-.139E-5,0
COSMOS 2485,2013-019A,2024-01-20T11:00:46.018944,2.13101605,.0024048,64.9824,103.1951,232.2114,127.6022,0,U,39155,999,8355,0,-.5E-6,0
NAVSTAR 68 (USA 242),2013-023A,2024-01-20T04:27:51.854976,2.00563404,.0120742,55.2409,304.5811,42.2665,318.6777,0,U,39166,999,7825,0,-.78E-6,0
IRNSS-1A,2013-034A,2024-01-16T17:56:29.351616,1.00274097,.0021456,33.7321,76.7000,188.7939,174.2981,0,U,39199,999,3852,0,.65E-6,0
NAVSTAR 69 (USA 248),2014-008A,2024-01-20T04:32:07.463328,2.00559477,.0068464,53.5994,185.1339,215.7975,143.7285,0,U,39533,999,7205,0,.8E-6,0
ASTRA 5B,2014-011B,2024-01-20T06:01:09.448320,1.00268816,.0004684,0.0911,295.8340,356.8992,300.1733,0,U,39617,999,3585,0,.141E-5,0
COSMOS 2492,2014-012A,2024-01-20T09:56:33.821376,2.13103054,.0015147,65.7278,343.6308,318.4954,41.3833,0,U,39620,999,7651,0,-.81E-6,0
IRNSS-1B,2014-017A,2024-01-16T17:56:29.351616,1.00272328,.0016955,29.2824,255.3927,180.6858,3.8030,0,U,39635,999,3593,0,.122E-5,0
COSMOS 2500,2014-032A,2024-01-20T03:02:05.613504,2.13105961,.0006529,65.6658,343.4572,226.3250,133.6156,0,U,40001,999,7472,0,-.79E-6,0
NAVSTAR 71 (USA 256),2014-045A,2024-01-20T01:23:09.907584,2.00555731,.0026528,54.8671,123.5686,117.3761,242.8855,0,U,40105,999,6844,0,-.38E-6,0
GSAT0201 (GALILEO 5),2014-050A,2024-01-20T07:48:35.970048,1.85519510,.1605691,49.8049,309.0423,145.5445,226.0181,0,U,40128,999,6201,0,-.106E-5,0
GSAT0202 (GALILEO 6),2014-050B,2024-01-18T23:12:55.589184,1.85520189,.1603962,49.8244,308.1710,146.3013,225.0364,0,U,40129,999,6415,0,-.104E-5,0
